[{"OBJECT_NAME":"DELTA 2 R/B","OBJECT_ID":"1999-041E","EPOCH":"2026-03-05T02:57:42.630912","MEAN_MOTION":14.11822682,"ECCENTRICITY":0.05023466,"INCLINATION":51.7642,"RA_OF_ASC_NODE":319.5187,"ARG_OF_PERICENTER":334.9571,"MEAN_ANOMALY":22.7733,"EPHEMERIS_TYPE":0,"CLASSIFICATION_TYPE":"U","NORAD_CAT_ID":25876,"ELEMENT_SET_NO":999,"REV_AT_EPOCH":36238,"BSTAR":0.00029501875,"MEAN_MOTION_DOT":1.599e-5,"MEAN_MOTION_DDOT":0},{"OBJECT_NAME":"HELIOS 1B","OBJECT_ID":"1999-064A","EPOCH":"2026-03-05T04:58:46.208064","MEAN_MOTION":14.8767705,"ECCENTRICITY":0.00025532,"INCLINATION":98.17,"RA_OF_ASC_NODE":326.3192,"ARG_OF_PERICENTER":80.8278,"MEAN_ANOMALY":279.3226,"EPHEMERIS_TYPE":0,"CLASSIFICATION_TYPE":"U","NORAD_CAT_ID":25977,"ELEMENT_SET_NO":999,"REV_AT_EPOCH":68459,"BSTAR":0.00033615687,"MEAN_MOTION_DOT":3.003e-5,"MEAN_MOTION_DDOT":0},{"OBJECT_NAME":"TERRA","OBJECT_ID":"1999-068A","EPOCH":"2026-03-05T06:20:38.879232","MEAN_MOTION":14.61009456,"ECCENTRICITY":0.00024324,"INCLINATION":97.9601,"RA_OF_ASC_NODE":117.8679,"ARG_OF_PERICENTER":161.9987,"MEAN_ANOMALY":262.9617,"EPHEMERIS_TYPE":0,"CLASSIFICATION_TYPE":"U","NORAD_CAT_ID":25994,"ELEMENT_SET_NO":999,"REV_AT_EPOCH":39443,"BSTAR":0.00013890629,"MEAN_MOTION_DOT":6.37e-6,"MEAN_MOTION_DDOT":0},{"OBJECT_NAME":"SL-16 R/B","OBJECT_ID":"2000-006B","EPOCH":"2026-03-05T04:59:46.942080","MEAN_MOTION":14.15825208,"ECCENTRICITY":0.00171033,"INCLINATION":71.0012,"RA_OF_ASC_NODE":107.2612,"ARG_OF_PERICENTER":196.4346,"MEAN_ANOMALY":163.6225,"EPHEMERIS_TYPE":0,"CLASSIFICATION_TYPE":"U","NORAD_CAT_ID":26070,"ELEMENT_SET_NO":999,"REV_AT_EPOCH":34792,"BSTAR":9.733558e-5,"MEAN_MOTION_DOT":1.44e-6,"MEAN_MOTION_DDOT":0},{"OBJECT_NAME":"TITAN 4B R/B","OBJECT_ID":"2000-047B","EPOCH":"2026-03-05T06:10:21.400896","MEAN_MOTION":15.09510212,"ECCENTRICITY":0.0038145,"INCLINATION":67.989,"RA_OF_ASC_NODE":52.9732,"ARG_OF_PERICENTER":40.635,"MEAN_ANOMALY":319.7634,"EPHEMERIS_TYPE":0,"CLASSIFICATION_TYPE":"U","NORAD_CAT_ID":26474,"ELEMENT_SET_NO":999,"REV_AT_EPOCH":39224,"BSTAR":0.00036528572,"MEAN_MOTION_DOT":5.839e-5,"MEAN_MOTION_DDOT":0},{"OBJECT_NAME":"ENVISAT","OBJECT_ID":"2002-009A","EPOCH":"2026-03-05T07:39:43.150752","MEAN_MOTION":14.39035096,"ECCENTRICITY":0.00013319,"INCLINATION":98.3722,"RA_OF_ASC_NODE":18.0208,"ARG_OF_PERICENTER":84.4515,"MEAN_ANOMALY":70.7498,"EPHEMERIS_TYPE":0,"CLASSIFICATION_TYPE":"U","NORAD_CAT_ID":27386,"ELEMENT_SET_NO":999,"REV_AT_EPOCH":25854,"BSTAR":7.7384041e-5,"MEAN_MOTION_DOT":1.96e-6,"MEAN_MOTION_DDOT":0},{"OBJECT_NAME":"IDEFIX & ARIANE 42P R/B","OBJECT_ID":"2002-021B","EPOCH":"2026-03-05T05:32:15.976608","MEAN_MOTION":14.310225,"ECCENTRICITY":0.00113128,"INCLINATION":98.5866,"RA_OF_ASC_NODE":2.8904,"ARG_OF_PERICENTER":195.5526,"MEAN_ANOMALY":164.5311,"EPHEMERIS_TYPE":0,"CLASSIFICATION_TYPE":"U","NORAD_CAT_ID":27422,"ELEMENT_SET_NO":999,"REV_AT_EPOCH":24338,"BSTAR":0.00017272852,"MEAN_MOTION_DOT":4.11e-6,"MEAN_MOTION_DDOT":0},{"OBJECT_NAME":"AQUA","OBJECT_ID":"2002-022A","EPOCH":"2026-03-05T07:46:32.397312","MEAN_MOTION":14.61964771,"ECCENTRICITY":6.08e-5,"INCLINATION":98.4169,"RA_OF_ASC_NODE":31.6096,"ARG_OF_PERICENTER":62.645,"MEAN_ANOMALY":101.919,"EPHEMERIS_TYPE":0,"CLASSIFICATION_TYPE":"U","NORAD_CAT_ID":27424,"ELEMENT_SET_NO":999,"REV_AT_EPOCH":26809,"BSTAR":0.00031675674,"MEAN_MOTION_DOT":1.538e-5,"MEAN_MOTION_DDOT":0},{"OBJECT_NAME":"CZ-4B R/B","OBJECT_ID":"2002-024C","EPOCH":"2026-03-05T02:43:20.674272","MEAN_MOTION":14.1454673,"ECCENTRICITY":0.00506903,"INCLINATION":98.8848,"RA_OF_ASC_NODE":117.543,"ARG_OF_PERICENTER":37.0917,"MEAN_ANOMALY":343.9436,"EPHEMERIS_TYPE":0,"CLASSIFICATION_TYPE":"U","NORAD_CAT_ID":27432,"ELEMENT_SET_NO":999,"REV_AT_EPOCH":22859,"BSTAR":5.8626172e-5,"MEAN_MOTION_DOT":7.0e-7,"MEAN_MOTION_DDOT":0},{"OBJECT_NAME":"MIDORI II (ADEOS-II)","OBJECT_ID":"2002-056A","EPOCH":"2026-03-04T11:36:00.334944","MEAN_MOTION":14.29280605,"ECCENTRICITY":0.0001781,"INCLINATION":98.7761,"RA_OF_ASC_NODE":21.9252,"ARG_OF_PERICENTER":50.0959,"MEAN_ANOMALY":310.0379,"EPHEMERIS_TYPE":0,"CLASSIFICATION_TYPE":"U","NORAD_CAT_ID":27597,"ELEMENT_SET_NO":999,"REV_AT_EPOCH":20955,"BSTAR":0.00019793252,"MEAN_MOTION_DOT":4.58e-6,"MEAN_MOTION_DDOT":0},{"OBJECT_NAME":"H-2A R/B","OBJECT_ID":"2002-056E","EPOCH":"2026-03-05T07:54:36.644256","MEAN_MOTION":14.33757469,"ECCENTRICITY":0.00702358,"INCLINATION":98.3196,"RA_OF_ASC_NODE":24.8613,"ARG_OF_PERICENTER":173.6093,"MEAN_ANOMALY":344.7076,"EPHEMERIS_TYPE":0,"CLASSIFICATION_TYPE":"U","NORAD_CAT_ID":27601,"ELEMENT_SET_NO":999,"REV_AT_EPOCH":21348,"BSTAR":0.000147996,"MEAN_MOTION_DOT":3.81e-6,"MEAN_MOTION_DDOT":0},{"OBJECT_NAME":"CZ-4B R/B","OBJECT_ID":"2003-049C","EPOCH":"2026-03-04T12:01:25.989600","MEAN_MOTION":14.55014781,"ECCENTRICITY":0.00470753,"INCLINATION":98.6874,"RA_OF_ASC_NODE":58.2023,"ARG_OF_PERICENTER":247.0745,"MEAN_ANOMALY":112.5479,"EPHEMERIS_TYPE":0,"CLASSIFICATION_TYPE":"U","NORAD_CAT_ID":28059,"ELEMENT_SET_NO":999,"REV_AT_EPOCH":18584,"BSTAR":0.00015405097,"MEAN_MOTION_DOT":6.21e-6,"MEAN_MOTION_DDOT":0},{"OBJECT_NAME":"CZ-2C R/B","OBJECT_ID":"2004-012C","EPOCH":"2026-03-05T03:08:40.003584","MEAN_MOTION":15.6388842,"ECCENTRICITY":0.0013091,"INCLINATION":97.7237,"RA_OF_ASC_NODE":128.9931,"ARG_OF_PERICENTER":328.0997,"MEAN_ANOMALY":31.9467,"EPHEMERIS_TYPE":0,"CLASSIFICATION_TYPE":"U","NORAD_CAT_ID":28222,"ELEMENT_SET_NO":999,"REV_AT_EPOCH":20356,"BSTAR":0.00063463544,"MEAN_MOTION_DOT":0.00060023,"MEAN_MOTION_DDOT":0},{"OBJECT_NAME":"SL-16 R/B","OBJECT_ID":"2004-021B","EPOCH":"2026-03-05T05:08:32.159904","MEAN_MOTION":14.14599302,"ECCENTRICITY":0.00037971,"INCLINATION":70.9991,"RA_OF_ASC_NODE":241.8848,"ARG_OF_PERICENTER":18.18,"MEAN_ANOMALY":341.9457,"EPHEMERIS_TYPE":0,"CLASSIFICATION_TYPE":"U","NORAD_CAT_ID":28353,"ELEMENT_SET_NO":999,"REV_AT_EPOCH":12220,"BSTAR":-6.9392022e-5,"MEAN_MOTION_DOT":-1.81e-6,"MEAN_MOTION_DDOT":0},{"OBJECT_NAME":"CZ-4B R/B","OBJECT_ID":"2004-035C","EPOCH":"2026-03-05T07:52:35.793984","MEAN_MOTION":15.28969447,"ECCENTRICITY":0.00314296,"INCLINATION":97.35,"RA_OF_ASC_NODE":98.6226,"ARG_OF_PERICENTER":347.4266,"MEAN_ANOMALY":12.6187,"EPHEMERIS_TYPE":0,"CLASSIFICATION_TYPE":"U","NORAD_CAT_ID":28415,"ELEMENT_SET_NO":999,"REV_AT_EPOCH":17924,"BSTAR":0.00034014845,"MEAN_MOTION_DOT":9.638e-5,"MEAN_MOTION_DDOT":0},{"OBJECT_NAME":"CZ-2C R/B","OBJECT_ID":"2004-046B","EPOCH":"2026-03-05T04:59:58.518816","MEAN_MOTION":14.26990318,"ECCENTRICITY":0.01396229,"INCLINATION":98.1987,"RA_OF_ASC_NODE":339.471,"ARG_OF_PERICENTER":167.6551,"MEAN_ANOMALY":192.8111,"EPHEMERIS_TYPE":0,"CLASSIFICATION_TYPE":"U","NORAD_CAT_ID":28480,"ELEMENT_SET_NO":999,"REV_AT_EPOCH":10786,"BSTAR":7.3366351e-5,"MEAN_MOTION_DOT":1.57e-6,"MEAN_MOTION_DDOT":0},{"OBJECT_NAME":"ARIANE 5 R/B","OBJECT_ID":"2004-049H","EPOCH":"2026-03-05T01:14:19.480704","MEAN_MOTION":14.85255602,"ECCENTRICITY":0.00842694,"INCLINATION":98.2618,"RA_OF_ASC_NODE":232.3352,"ARG_OF_PERICENTER":6.9702,"MEAN_ANOMALY":353.2662,"EPHEMERIS_TYPE":0,"CLASSIFICATION_TYPE":"U","NORAD_CAT_ID":28499,"ELEMENT_SET_NO":999,"REV_AT_EPOCH":14510,"BSTAR":0.00011931366,"MEAN_MOTION_DOT":1.026e-5,"MEAN_MOTION_DDOT":0}]
