DELTA 2 R/B             
1 25876U 99041E   26064.12341008  .00001599  00000+0  29502-3 0  9992
2 25876  51.7642 319.5187 0502346 334.9571  22.7733 14.11822682362382
HELIOS 1B               
1 25977U 99064A   26064.20747926  .00003003  00000+0  33616-3 0  9990
2 25977  98.1700 326.3192 0002553  80.8278 279.3226 14.87677050684599
TERRA                   
1 25994U 99068A   26064.26433888  .00000637  00000+0  13891-3 0  9991
2 25994  97.9601 117.8679 0002432 161.9987 262.9617 14.61009456394436
SL-16 R/B               
1 26070U 00006B   26064.20818220  .00000144  00000+0  97336-4 0  9992
2 26070  71.0012 107.2612 0017103 196.4346 163.6225 14.15825208347928
TITAN 4B R/B            
1 26474U 00047B   26064.25719214  .00005839  00000+0  36529-3 0  9995
2 26474  67.9890  52.9732 0038145  40.6350 319.7634 15.09510212392240
ENVISAT                 
1 27386U 02009A   26064.31924943  .00000196  00000+0  77384-4 0  9998
2 27386  98.3722  18.0208 0001331  84.4515  70.7498 14.39035096258542
IDEFIX & ARIANE 42P R/B 
1 27422U 02021B   26064.23074047  .00000411  00000+0  17273-3 0  9995
2 27422  98.5866   2.8904 0011312 195.5526 164.5311 14.31022500243384
AQUA                    
1 27424U 02022A   26064.32398608  .00001538  00000+0  31676-3 0  9994
2 27424  98.4169  31.6096 0000608  62.6450 101.9190 14.61964771268092
CZ-4B R/B               
1 27432U 02024C   26064.11343373  .00000070  00000+0  58626-4 0  9996
2 27432  98.8848 117.5430 0050690  37.0917 343.9436 14.14546730228596
MIDORI II (ADEOS-II)    
1 27597U 02056A   26063.48333721  .00000458  00000+0  19793-3 0  9999
2 27597  98.7761  21.9252 0001781  50.0959 310.0379 14.29280605209557
H-2A R/B                
1 27601U 02056E   26064.32959079  .00000381  00000+0  14800-3 0  9998
2 27601  98.3196  24.8613 0070235 173.6093 344.7076 14.33757469213482
CZ-4B R/B               
1 28059U 03049C   26063.50099525  .00000621  00000+0  15405-3 0  9998
2 28059  98.6874  58.2023 0047075 247.0745 112.5479 14.55014781185841
CZ-2C R/B               
1 28222U 04012C   26064.13101856  .00060023  00000+0  63464-3 0  9992
2 28222  97.7237 128.9931 0013091 328.0997  31.9467 15.63888420203569
SL-16 R/B               
1 28353U 04021B   26064.21426111 -.00000181  00000+0 -69392-4 0  9998
2 28353  70.9991 241.8848 0003797  18.1800 341.9457 14.14599302122205
CZ-4B R/B               
1 28415U 04035C   26064.32819206  .00009638  00000+0  34015-3 0  9992
2 28415  97.3500  98.6226 0031429 347.4266  12.6187 15.28969447179243
CZ-2C R/B               
1 28480U 04046B   26064.20831619  .00000157  00000+0  73366-4 0  9995
2 28480  98.1987 339.4710 0139622 167.6551 192.8111 14.26990318107865
ARIANE 5 R/B            
1 28499U 04049H   26064.05161436  .00001026  00000+0  11931-3 0  9999
2 28499  98.2618 232.3352 0084269   6.9702 353.2662 14.85255602145107
